IRIDIUM 63              
1 25286U 98021B   25152.85526116  .00000499  00000+0  16335-3 0  9994
2 25286  86.3971  88.5638 0002217  81.3654 278.7795 14.36535184421648
IRIDIUM 69              
1 25319U 98026A   25153.12323241  .00000648  00000+0  19587-3 0  9999
2 25319  86.3961 101.7885 0004652  79.6805 280.4919 14.40953868421139
IRIDIUM 71              
1 25320U 98026B   25152.92375006  .00000554  00000+0  16573-3 0  9992
2 25320  86.3961  96.5653 0004022 110.2578 249.9054 14.41147045421396
IRIDIUM 73              
1 25344U 98032C   25153.79365155  .00000742  00000+0  17995-3 0  9993
2 25344  86.4423  52.9299 0002825  76.0582 284.0937 14.51701827428775
IRIDIUM 82              
1 25467U 98051A   25152.93901750  .00038195  00000+0  11112-2 0  9999
2 25467  86.3661 117.2326 0085710 357.1038   2.9702 15.31603436421623
